0 ARABSAT 1A
1 15560U 85015A   19187.68926285 -.00000021 +00000-0 +00000-0 0  9992
2 15560 014.5822 351.9636 0003668 051.6753 128.2931 01.00404452100540
0 ARABSAT 1A
1 15560U 85015A   19188.21085456 -.00000020  00000-0  00000+0 0  9996
2 15560  14.5818 351.9583 0003658  51.7149 316.7926  1.00404522100642
0 BRAZILSAT 1
1 15561U 85015B   19187.89285719 -.00000265  00000-0  00000+0 0  9995
2 15561  15.2948   5.6342 0005756 322.5582 218.1810  0.99548956101344
0 BRAZILSAT 1
1 15561U 85015B   19187.89285719 -.00000264 +00000-0 +00000-0 0  9995
2 15561 015.2948 005.6342 0005756 322.5582 218.1810 00.99548956021086
0 ARIANE 3 R/B
1 15562U 85015C   19187.67203663 +.00000208 +00000-0 +23328-3 0  9998
2 15562 006.6800 198.7770 6718254 207.9514 088.2109 02.97147880288722
0 ARIANE 3 R/B
1 15562U 85015C   19188.34341608  .00000122  00000-0  21449-3 0  9992
2 15562   6.6790 198.3983 6718261 208.6982  86.4055  2.97148256288725
0 COSMOS 1629
1 15574U 85016A   19188.75999483 -.00000245  00000-0  00000+0 0  9994
2 15574  13.4549 336.0490 0002553 190.3017   1.8260  1.00303428125018
0 COSMOS 1629
1 15574U 85016A   19187.75493719 -.00000243 +00000-0 +00000-0 0  9993
2 15574 013.4562 336.0596 0002526 189.6974 359.4961 01.00303689125012
0 SL-12 R/B(2)
1 15581U 85016F   19187.78756343 -.00000336 +00000-0 +00000-0 0  9992
2 15581 013.8736 337.4653 0022508 185.8809 177.2284 00.99406867096710
0 SL-12 R/B(2)
1 15581U 85016F   19188.79201039 -.00000332  00000-0  00000+0 0  9996
2 15581  13.8723 337.4548 0022517 185.9557 176.6232  0.99406398 96715
0 COSMOS 1633
1 15592U 85020A   19187.85298509 +.00000730 +00000-0 +23496-4 0  9997
2 15592 082.5388 286.9952 0014174 047.1985 313.0444 15.30373160878607
0 SL-14 R/B
1 15593U 85020B   19187.79801839 +.00000076 +00000-0 +61863-5 0  9991
2 15593 082.5388 281.1407 0013211 085.0486 275.2237 14.84359121834406
0 SL-14 R/B
1 15593U 85020B   19188.40471560  .00000073  00000-0  57523-5 0  9999
2 15593  82.5388 280.5730 0013210  83.2625 277.0093 14.84359159855653
0 GEOSAT
1 15595U 85021A   19188.85753889 -.00000090  00000-0  14845-4 0  9997
2 15595 108.0334 212.6697 0001856 247.4687 188.3174 14.38118741798292
0 GEOSAT
1 15595U 85021A   19187.95017074 -.00000086 +00000-0 +16247-4 0  9999
2 15595 108.0334 210.7879 0001876 247.5649 172.1564 14.38118691797909
0 ATLAS 41E R/B
1 15596U 85021B   19187.97251218 -.00000058 +00000-0 +23997-4 0  9991
2 15596 108.0484 319.7993 0032638 014.2916 089.6565 14.41853826801155
0 ATLAS 41E R/B
1 15596U 85021B   19188.17389818 -.00000059  00000-0  23615-4 0  9990
2 15596 108.0484 320.2198 0032648  13.9155  55.0081 14.41853845801455
0 COSMOS 1634
1 15597U 85022A   19188.24288799  .00000043  00000-0  29565-4 0  9998
2 15597  82.9411 296.2826 0034167 275.4657 147.6104 13.75078740721810
0 COSMOS 1634
1 15597U 85022A   19187.89456674 +.00000041 +00000-0 +27023-4 0  9992
2 15597 082.9410 296.5407 0034171 276.4803 223.2788 13.75078718721517
0 SL-8 R/B
1 15598U 85022B   19188.81549556  .00000027  00000-0  11673-4 0  9996
2 15598  82.9379 269.1476 0022548 166.5508 313.2799 13.76580712723731
0 ATLAS 41E DEB
1 15614U 85021D   19187.88587856 -.00000044 +00000-0 +21395-4 0  9997
2 15614 108.2270 288.3540 0016329 203.2416 156.8003 14.68653210823404
0 ATLAS 41E DEB
1 15615U 85021E   19187.89734787 -.00000028 +00000-0 +31136-4 0  9992
2 15615 107.8427 025.4518 0046138 237.3498 233.0077 14.46318955800851
0 ATLAS 41E DEB
1 15616U 85021F   19187.87318525 +.00001731 +00000-0 +10805-3 0  9999
2 15616 107.4720 324.5288 0025204 268.9820 090.8477 15.13927352802836
0 ATLAS 41E DEB
1 15616U 85021F   19188.07142091  .00001739  00000-0  10848-3 0  9990
2 15616 107.4720 324.9783 0025210 268.6024  91.2272 15.13928079823625
0 COSMOS 1636
1 15618U 85023B   19187.69206869 +.00000004 +00000-0 +13698-3 0  9995
2 15618 074.0560 276.9354 0013158 249.0855 263.2948 12.45316699558976
0 COSMOS 1636
1 15618U 85023B   19188.39613747 -.00000002  00000-0  94145-4 0  9996
2 15618  74.0559 276.0094 0013156 248.0680 179.7004 12.45316709559325
0 COSMOS 1637
1 15619U 85023C   19187.77105080 -.00000026 +00000-0 -73227-4 0  9999
2 15619 074.0529 218.6862 0014518 134.4926 277.7972 12.47202181561418
0 COSMOS 1638
1 15620U 85023D   19187.90100425 -.00000011 +00000-0 +31081-4 0  9999
2 15620 074.0537 157.8127 0015352 016.3050 045.9975 12.49172210563882
0 COSMOS 1639
1 15621U 85023E   19187.89649956 +.00000000 +00000-0 +10541-3 0  9999
2 15621 074.0562 100.5264 0025458 303.6545 121.0190 12.51013833566197
0 COSMOS 1639
1 15621U 85023E   19188.14619372  .00000002  00000-0  11374-3 0  9994
2 15621  74.0562 100.1945 0025458 303.2839 165.5478 12.51013831566405
0 COSMOS 1640
1 15622U 85023F   19187.91181671 -.00000019 +00000-0 -20565-4 0  9998
2 15622 074.0562 045.1815 0034149 233.6596 233.6351 12.52795924568559
0 COSMOS 1641
1 15623U 85023G   19187.91960414 -.00000013 +00000-0 +17853-4 0  9998
2 15623 074.0563 351.3988 0043613 172.3555 341.9969 12.54516636570525
0 COSMOS 1641
1 15623U 85023G   19188.45806265 -.00000012  00000-0  21291-4 0  9991
2 15623  74.0563 350.6782 0043597 171.5259 253.8269 12.54516617570839
0 COSMOS 1642
1 15624U 85023H   19187.78889403 +.00000006 +00000-0 +13098-3 0  9999
2 15624 074.0566 294.3419 0050517 096.1426 061.7404 12.56346238572787
0 EKRAN 14
1 15626U 85024A   19187.82088755 -.00000130 +00000-0 +00000-0 0  9993
2 15626 015.9893 341.1084 0020414 313.4488 225.4299 00.94797609098225
0 INTELSAT 510
1 15629U 85025A   19187.49233022 -.00000054 +00000-0 +00000-0 0  9994
2 15629 015.5343 000.4748 0033137 320.8773 232.4065 00.98282351090230
0 INTELSAT 510
1 15629U 85025A   19188.49593708 -.00000038  00000-0  00000+0 0  9996
2 15629  15.5339   0.4652 0033116 320.8193 227.5705  0.98282151 90326
0 SL-12 R/B(2)
1 15630U 85024D   19188.13313108  .00000078  00000-0  00000+0 0  9995
2 15630  12.8465 331.5491 0011798 176.9574 187.1112  1.01226853126787
0 SL-12 R/B(2)
1 15630U 85024D   19187.61784822 +.00000075 +00000-0 +00000-0 0  9990
2 15630 012.8473 331.5547 0011786 176.8779 359.4047 01.01226748126785
0 NAHUEL I1 (ANIK C1)
1 15642U 85028B   19187.89468914 -.00000299 +00000-0 +00000-0 0  9997
2 15642 015.0509 012.9389 0015050 067.0113 116.9610 00.99664503021101
0 LEASAT 3
1 15643U 85028C   19187.54910756 -.00000140 +00000-0 +00000-0 0  9991
2 15643 016.1907 332.0793 0073066 237.3895 107.4353 00.96963275112005
0 LEASAT 3
1 15643U 85028C   19188.63355358 -.00000164  00000-0  00000+0 0  9998
2 15643  16.1892 332.0673 0073103 237.4211 125.9649  0.96963628112072
0 ANIK C1 R/B(PAM-D)
1 15644U 85028D   19187.21962879 +.00000561 +00000-0 +28497-3 0  9998
2 15644 023.0334 269.6258 6921768 023.6181 356.8150 02.71679346316907
0 GSTAR 1
1 15677U 85035A   19187.54190279 -.00000124 +00000-0 +00000-0 0  9998
2 15677 015.0153 009.7105 0008515 031.9201 332.2680 01.00273272099769
0 TELECOM 1B
1 15678U 85035B   19187.15111177 +.00000022 +00000-0 +00000-0 0  9992
2 15678 013.9168 341.9359 0002823 007.1387 169.4726 01.00278596111569
0 TELECOM 1B
1 15678U 85035B   19188.65860358  .00000019  00000-0  00000+0 0  9995
2 15678  13.9152 341.9202 0002749   6.0390 354.8086  1.00279109111759
0 ARIANE 3 DEB (SYLDA)
1 15680U 85035D   19188.39288732  .00021720  00000-0  19387-2 0  9992
2 15680   6.7806 128.4496 3398144  58.1583 330.5500  8.51206201588388
0 SL-12 R/B(2)
1 15693U 84063F   19187.58496028 -.00000070 +00000-0 +00000-0 0  9991
2 15693 011.8362 329.3241 0014599 186.9603 174.4421 01.03288724100865
0 COSMOS 1650 (GLONASS)
1 15697U 85037A   19187.26127788 +.00000069 +00000-0 +00000-0 0  9993
2 15697 064.1277 160.5173 0033114 016.4723 085.0185 02.13102635242216
0 COSMOS 1651 (GLONASS)
1 15698U 85037B   19187.58766458 +.00000071 +00000-0 +00000-0 0  9995
2 15698 064.1093 160.1355 0014009 010.0662 168.9445 02.13125849265706
0 COSMOS 1651 (GLONASS)
1 15698U 85037B   19188.05643360  .00000073  00000-0  00000+0 0  9995
2 15698  64.1093 160.1194 0014011  10.0820 168.5932  2.13125842265706
0 COSMOS 1652 (GLONASS)
1 15699U 85037C   19187.61404782 +.00000071 +00000-0 +00000-0 0  9999
2 15699 064.1083 160.3752 0017283 014.8248 163.0594 02.13067308265591
0 SL-12 R/B(2)
1 15702U 85037F   19186.81299208 +.00000066 +00000-0 +00000-0 0  9994
2 15702 064.1059 159.2167 0033984 011.7934 171.3122 02.13321381265728
0 SL-12 R/B(2)
1 15702U 85037F   19188.02714420  .00000072  00000-0  00000+0 0  9993
2 15702  64.1060 159.1749 0033990  11.8197  23.7029  2.13321377265949
0 SL-12 R/B(AUX MOTOR)
1 15714U 85037G   19187.69438150 +.00000442 +00000-0 +12728-3 0  9996
2 15714 051.9110 072.2849 5534980 329.9820 007.4833 04.72971474556822
0 SL-12 R/B(AUX MOTOR)
1 15715U 85037H   19187.14121359 +.00000643 +00000-0 +18058-3 0  9992
2 15715 052.0093 257.6784 5204954 311.8059 014.1993 05.24245727485782
0 MOLNIYA 3-24
1 15738U 85040A   19187.99417613  .00000075  00000-0 -17463-1 0  9992
2 15738  63.9777 259.5995 6470175 255.5448  25.7379  2.55629918276388
0 COSMOS 1655
1 15751U 85041A   19188.86063771  .00000026  00000-0  12316-4 0  9997
2 15751  82.9496 133.5801 0025464 296.2481 115.7030 13.71705225707221
0 COSMOS 1655
1 15751U 85041A   19187.91423449 +.00000025 +00000-0 +11499-4 0  9994
2 15751 082.9495 134.2765 0025494 298.9871 122.1199 13.71705234706836
0 SL-8 R/B
1 15752U 85041B   19187.88101000 +.00000063 +00000-0 +51899-4 0  9997
2 15752 082.9505 113.5572 0023456 202.4968 157.5161 13.73129698708499
0 SL-8 R/B
1 15752U 85041B   19188.17248006  .00000066  00000-0  55273-4 0  9991
2 15752  82.9505 113.3422 0023476 201.6669 158.3495 13.73129724708783
0 SL-8 DEB
1 15756U 83079D   19188.06755325  .00000226  00000-0  46734-4 0  9999
2 15756  74.0508  62.7195 0009520 163.8756 196.2718 14.66220017805301
